AKEBONO (EXOS-D)        
1 19822U 89016A   17324.57550673  .00014114  78071-6  27417-3 0  9995
2 19822  75.0358 110.4180 1879029 310.7573  34.4553 11.75672839927572
HST                     
1 20580U 90037B   17324.58358031  .00000725  00000-0  33645-4 0  9993
2 20580  28.4704  53.9757 0002953  57.6053  36.4150 15.08923844313845
POLAR                   
1 23802U 96013A   17322.78257230 -.00000257  00000-0  00000-0 0  9998
2 23802  78.5155 266.3813 7262900 316.5170   4.8842  1.29842931104185
SWAS                    
1 25560U 98071A   17324.84613993  .00000368  00000-0  43525-4 0  9993
2 25560  69.8993 227.0633 0010759 300.9766  59.0333 14.93493782 28935
ORSTED                  
1 25635U 99008B   17324.57466961  .00000115  00000-0  34507-4 0  9998
2 25635  96.4601 193.7381 0140484 108.6995 252.9511 14.48032551988586
CXO                     
1 25867U 99040B   17325.38123169  .00000515  00000-0  00000+0 0  9991
2 25867  72.9874 286.9353 6804913 247.7855   0.4082  0.37802210 16646
XMM-NEWTON              
1 25989U 99066A   17325.22397983 -.00000472  00000-0  00000+0 0  9997
2 25989  69.5980 356.2475 8133188  95.9948 359.7931  0.50142997 21670
TERRA                   
1 25994U 99068A   17324.77147854 -.00000082  00000-0 -81477-5 0  9995
2 25994  98.2185  37.5491 0000946  74.5626 285.5659 14.57113818953479
CLUSTER II-FM6 (SALSA)  
1 26410U 00041A   17325.77028233  .00000502  00000-0  00000+0 0  9994
2 26410 130.8897 334.3515 4298789 155.8805   0.5804  0.44178069 18199
CLUSTER II-FM7 (SAMBA)  
1 26411U 00041B   17325.73850699  .00000432  00000-0  00000+0 0  9992
2 26411 129.9601 335.6528 5005545 163.8515   0.5588  0.44237033 18279
CLUSTER II-FM5 (RUMBA)  
1 26463U 00045A   17325.73260083  .00000479  00000-0  00000-0 0  9997
2 26463 133.5107 334.1833 4708740 162.1189   0.5625  0.44233715  6368
CLUSTER II-FM8 (TANGO)  
1 26464U 00045B   17322.62786375  .00000516  00000-0  00000-0 0  9992
2 26464 130.8941 334.3260 4297784 155.7807 232.4296  0.44220701  6447
ODIN                    
1 26702U 01007A   17324.57504300  .00000216  00000-0  18444-4 0  9990
2 26702  97.6038 339.8769 0009619 234.3970 125.6362 15.07332998914602
TIMED                   
1 26998U 01055B   17324.53870979  .00000185  00000-0  24266-4 0  9998
2 26998  74.0727   4.0009 0002258 299.2456  60.8499 14.87964345864735
RHESSI                  
1 27370U 02004A   17324.02390550  .00001721  00000-0  63690-4 0  9995
2 27370  38.0315 178.3129 0013030 238.7311 121.2183 15.29396895870127
CORIOLIS                
1 27640U 03001A   17324.57335956  .00000013  00000-0  27228-4 0  9992
2 27640  98.7416 332.6684 0013488 214.7969 254.2640 14.18961264770144
SORCE                   
1 27651U 03004A   17324.81508233  .00000152  00000-0  30077-4 0  9994
2 27651  39.9946 168.7918 0024888 257.0684 102.7325 14.88773832804132
MOST                    
1 27843U 03031D   17324.69213079 -.00000013  00000-0  14341-4 0  9997
2 27843  98.7137 330.5955 0008917 284.8881  75.1308 14.20557608746172
SCISAT 1                
1 27858U 03036A   17324.88910638  .00000130  00000-0  23460-4 0  9995
2 27858  73.9340 239.0615 0009154 298.7504  61.2750 14.77169376768911
SWIFT                   
1 28485U 04047A   17324.80524090  .00001090  00000-0  45194-4 0  9994
2 28485  20.5560 119.6800 0011439  57.0096 303.1436 15.03942176711813
FORMOSAT-3 FM6          
1 29047U 06011A   17324.19662100  .00000090  00000-0  51900-4 0  9990
2 29047  71.9797 228.8500 0052419 244.2740 115.2979 14.28609662607037
FORMOSAT-3 FM1          
1 29048U 06011B   17324.60264644  .00000044  00000-0  33693-4 0  9996
2 29048  71.9653 140.0045 0044438 200.7710 159.1622 14.28547195609580
FORMOSAT-3 FM5          
1 29049U 06011C   17324.37364494  .00000057  00000-0  38818-4 0  9993
2 29049  72.0196 306.8084 0037011 236.5695 123.1900 14.28603328605338
FORMOSAT-3 FM3          
1 29050U 06011D   17324.32234758  .00000240  00000-0  61099-4 0  9990
2 29050  72.0153 188.8307 0051721 234.4189 125.2138 14.58589355619335
FORMOSAT-3 FM4          
1 29051U 06011E   17324.18246435  .00000157  00000-0  76902-4 0  9996
2 29051  72.0058 210.9958 0066586 111.4037 249.4221 14.28630463607894
FORMOSAT-3 FM2          
1 29052U 06011F   17324.45610314  .00000105  00000-0  57530-4 0  9997
2 29052  72.0342 281.8487 0040981 199.1831 160.7765 14.28724702606258
CLOUDSAT                
1 29107U 06016A   17324.86149929  .00000093  00000-0  30645-4 0  9991
2 29107  98.2184 266.5659 0000809  63.3290 296.7991 14.57121434615245
CALIPSO                 
1 29108U 06016B   17324.58582440  .00000178  00000-0  49671-4 0  9993
2 29108  98.2205 265.8716 0001219  78.3646 281.7689 14.57100778615115
HINODE (SOLAR-B)        
1 29479U 06041A   17324.87079644  .00000102  00000-0  28068-4 0  9995
2 29479  98.1685 328.2218 0018372  85.6010 274.7291 14.64872861596343
SJ-6C                   
1 29505U 06046A   17324.83285196  .00000427  00000-0  45010-4 0  9993
2 29505  97.8241 326.2524 0001761 322.0019  38.1112 14.94389489603262
SJ-6D                   
1 29506U 06046B   17324.84332165  .00000643  00000-0  66855-4 0  9994
2 29506  97.8436 325.7052 0003041  35.2229 324.9184 14.93331601602938
AGILE                   
1 31135U 07013A   17324.08771366  .00002891  00000-0  58278-4 0  9993
2 31135   2.4690 334.6802 0012971 265.6130  94.2441 15.30272899587634
AIM                     
1 31304U 07015A   17324.58253872  .00001044  00000-0  64288-4 0  9992
2 31304  98.0008 151.0127 0004568 338.6876  21.4162 15.12398450578575
FGRST (GLAST)           
1 33053U 08029A   17324.53206725  .00000695  00000-0  23296-4 0  9996
2 33053  25.5840  19.6715 0012101 291.8432  68.0816 15.11004848520977
WISE                    
1 36119U 09071A   17324.56902022  .00001356  00000-0  51318-4 0  9997
2 36119  97.4369 352.3222 0004239 109.2230 250.9469 15.28693004440140
SDO                     
1 36395U 10005A   17324.52918700 -.00000032  00000-0  00000-0 0  9997
2 36395  28.9421 137.6313 0001491 105.0137 265.9397  1.00272953 28673
CRYOSAT 2               
1 36508U 10013A   17324.57552396  .00000041  00000-0  94329-5 0  9993
2 36508  92.0289 240.0617 0008310 152.7567 207.4078 14.52176439403871
GCOM-W1 (SHIZUKU)       
1 38337U 12025A   17324.53937699  .00000110  00000-0  34592-4 0  9991
2 38337  98.2198 262.5173 0000910  51.9716  86.1268 14.57112130293121
NUSTAR                  
1 38358U 12031A   17324.03804099  .00001082  00000-0  40155-4 0  9994
2 38358   6.0265 258.0851 0011611  16.4259 343.6246 14.87877715295698
RBSP A                  
1 38752U 12046A   17323.41360346 -.00000031  00000-0  40644-3 0  9997
2 38752   9.8805 119.0254 6820395 277.1377  15.8990  2.68112322 51056
RBSP B                  
1 38753U 12046B   17322.60008405 -.00000004  00000-0  64783-3 0  9993
2 38753   9.8505 130.5730 6832382 254.9368  25.5106  2.65128562 50666
NEOSSAT                 
1 39089U 13009D   17324.56280631  .00000001  00000-0  15880-4 0  9997
2 39089  98.5393 166.3125 0010842 190.0260 170.0711 14.34406393247811
BRITE-AUSTRIA           
1 39091U 13009F   17324.56792345  .00000015  00000-0  20775-4 0  9994
2 39091  98.5342 167.7682 0010063 198.6022 161.4797 14.35050202247910
UNIBRITE                
1 39092U 13009G   17324.85988023  .00000033  00000-0  26999-4 0  9991
2 39092  98.5352 167.7336 0009104 190.2012 169.8990 14.34924506247945
IRIS                    
1 39197U 13033A   17324.57093103  .00000209  00000-0  35682-4 0  9993
2 39197  97.9297 143.7199 0028438  31.9709 328.3220 14.78465499237191
HISAKI (SPRINT-A)       
1 39253U 13049A   17324.36628110  .00000041  00000-0 -35128-4 0  9992
2 39253  29.7205 290.9692 0137125 204.4705 154.9309 13.55181188206399
CASSIOPE                
1 39265U 13055A   17324.85244268  .00003912  00000-0  11269-3 0  9992
2 39265  80.9707 212.8048 0682520 159.0658 203.9983 14.24253033213793
DANDE                   
1 39267U 13055C   17324.60827763  .00002709  00000-0  79868-4 0  9997
2 39267  81.0134 226.4091 0708712 181.3755 178.5501 14.18187142210855
STSAT-3                 
1 39422U 13066G   17324.81041511  .00000510  00000-0  58839-4 0  9997
2 39422  97.6393  22.1682 0024683  75.7459 284.6476 14.89535273217240
BRITE-PL                
1 39431U 13066R   17324.89512861  .00000167  00000-0  46156-4 0  9993
2 39431  97.7282 288.9155 0202451 351.1225   8.6409 14.46889840211113
SWARM B                 
1 39451U 13067A   17324.86380878  .00000551  00000-0  23160-4 0  9991
2 39451  87.7580 201.0502 0002982 113.1179 247.0381 15.21181494221661
SWARM A                 
1 39452U 13067B   17324.59569730  .00001975  00000-0  44311-4 0  9990
2 39452  87.3459 113.5348 0003395  88.7380 271.4265 15.42672317224205
SWARM C                 
1 39453U 13067C   17324.59563104  .00001959  00000-0  43945-4 0  9994
2 39453  87.3460 114.9576 0003402  87.9423 272.2223 15.42672261224160
BRITE-TORONTO           
1 40020U 14033L   17324.63456781  .00000087  00000-0  23382-4 0  9991
2 40020  97.8110 188.1880 0087334 188.2719 171.7052 14.66443033183019
OCO 2                   
1 40059U 14035A   17324.57984875  .00000061  00000-0  23703-4 0  9997
2 40059  98.2202 263.7379 0000939  96.2577 263.8729 14.57104455180155
BRITE-PL 2              
1 40119U 14049B   17324.22174814  .00000205  00000-0  31020-4 0  9996
2 40119  97.9305  49.2531 0016309 302.6105  57.3535 14.84215430176307
RESURS P2               
1 40360U 14087A   17324.74161517  .00001381  00000-0  46745-4 0  9995
2 40360  97.2763  55.6866 0008405 317.0335 163.6201 15.32268144162356
MMS 1                   
1 40482U 15011A   17319.70833333 -.00000912  00000-0  00000+0 0  9999
2 40482  20.9319 309.0857 9026542 160.4660 168.9956  0.35519095  8196
MMS 2                   
1 40483U 15011B   17319.71189815 -.00000913  00000-0  00000+0 0  9991
2 40483  20.9309 309.0760 9025463 160.4664 169.4622  0.35519045  8184
MMS 3                   
1 40484U 15011C   17319.71204861 -.00000913  00000-0  00000+0 0  9991
2 40484  20.9336 309.0915 9025335 160.4558 169.4714  0.35519073  8180
MMS 4                   
1 40485U 15011D   17319.71221065 -.00000913  00000-0  00000+0 0  9997
2 40485  20.9314 309.0764 9025484 160.4744 169.4778  0.35519042  8187
ASTROSAT                
1 40930U 15052A   17324.54194642  .00000922  00000-0  40626-4 0  9996
2 40930   5.9952 201.1533 0008898 294.3113  65.6122 14.76175694116098
DAMPE                   
1 41173U 15078A   17324.84642569  .00000190  00000-0  10793-4 0  9992
2 41173  97.2894 328.4674 0013244 331.2969 152.1883 15.23635059107317
PISAT                   
1 41784U 16059B   17324.21014725  .00000165  00000-0  41065-4 0  9996
2 41784  98.1488  24.0719 0032609  32.8629 327.4592 14.63278084 61391
HXMT                    
1 42758U 17034A   17324.89027861  .00000246  00000-0  29469-4 0  9995
2 42758  43.0174 147.8405 0008777 260.6581 202.8683 15.08158700 23978
FLYING LAPTOP           
1 42831U 17042G   17324.61609990  .00000447  00000-0  50880-4 0  9999
2 42831  97.6078 229.6479 0014300 167.6432 192.5140 14.90749849 19257
